STARLINK-1700
1 16549C 20070T   21326.13613477 -.00020006  00000-0 -13403-2 0  3260
2 16549  53.0534  18.1384 0001290  52.6187 208.3486 15.06422051    14
